[{"OBJECT_NAME":"KHAYYAM","OBJECT_ID":"2022-096A","EPOCH":"2026-03-09T23:16:46.350624","MEAN_MOTION":15.24771015,"ECCENTRICITY":0.00024081,"INCLINATION":97.351,"RA_OF_ASC_NODE":334.9969,"ARG_OF_PERICENTER":70.558,"MEAN_ANOMALY":289.5917,"EPHEMERIS_TYPE":0,"CLASSIFICATION_TYPE":"U","NORAD_CAT_ID":53370,"ELEMENT_SET_NO":999,"REV_AT_EPOCH":19946,"BSTAR":0.00026923471,"MEAN_MOTION_DOT":6.603e-5,"MEAN_MOTION_DDOT":0},{"OBJECT_NAME":"MONITOR-4 (RS57S)","OBJECT_ID":"2023-091S","EPOCH":"2026-03-09T23:02:36.101184","MEAN_MOTION":15.25833519,"ECCENTRICITY":0.00137053,"INCLINATION":97.5193,"RA_OF_ASC_NODE":131.7407,"ARG_OF_PERICENTER":91.587,"MEAN_ANOMALY":268.6938,"EPHEMERIS_TYPE":0,"CLASSIFICATION_TYPE":"U","NORAD_CAT_ID":57182,"ELEMENT_SET_NO":999,"REV_AT_EPOCH":14915,"BSTAR":0.00052093098,"MEAN_MOTION_DOT":0.000133,"MEAN_MOTION_DDOT":0}]
